{
    "links": {
        "self": "http://www.neowsapp.com/rest/v1/neo/3421946?api_key=iIulBulltgU6a56xZRHN4H3l9WmuAYTsLGpBGhQ2"
    },
    "id": "3421946",
    "neo_reference_id": "3421946",
    "name": "(2008 OY2)",
    "designation": "2008 OY2",
    "nasa_jpl_url": "http://ssd.jpl.nasa.gov/sbdb.cgi?sstr=3421946",
    "absolute_magnitude_h": 27.3,
    "estimated_diameter": {
        "kilometers": {
            "estimated_diameter_min": 0.0092162655,
            "estimated_diameter_max": 0.0206081961
        },
        "meters": {
            "estimated_diameter_min": 9.216265485,
            "estimated_diameter_max": 20.6081961232
        },
        "miles": {
            "estimated_diameter_min": 0.0057267201,
            "estimated_diameter_max": 0.0128053354
        },
        "feet": {
            "estimated_diameter_min": 30.2370924539,
            "estimated_diameter_max": 67.6121941689
        }
    },
    "is_potentially_hazardous_asteroid": false,
    "close_approach_data": [
        {
            "close_approach_date": "1919-08-21",
            "close_approach_date_full": "1919-Aug-21 17:13",
            "epoch_date_close_approach": -1589352420000,
            "relative_velocity": {
                "kilometers_per_second": "16.4578053983",
                "kilometers_per_hour": "59248.0994337896",
                "miles_per_hour": "36814.4648954011"
            },
            "miss_distance": {
                "astronomical": "0.2383079983",
                "lunar": "92.7018113387",
                "kilometers": "35650368.949643621",
                "miles": "22152112.0582231298"
            },
            "orbiting_body": "Earth"
        },
        {
            "close_approach_date": "1989-11-13",
            "close_approach_date_full": "1989-Nov-13 06:24",
            "epoch_date_close_approach": 626941440000,
            "relative_velocity": {
                "kilometers_per_second": "8.2318947987",
                "kilometers_per_hour": "29634.821275313",
                "miles_per_hour": "18413.9254752077"
            },
            "miss_distance": {
                "astronomical": "1.8638160146",
                "lunar": "725.0244296794",
                "kilometers": "278822905.856048902",
                "miles": "173252519.8728507676"
            },
            "orbiting_body": "Juptr"
        },
        {
            "close_approach_date": "2001-12-28",
            "close_approach_date_full": "2001-Dec-28 19:17",
            "epoch_date_close_approach": 1009567020000,
            "relative_velocity": {
                "kilometers_per_second": "4.3269251362",
                "kilometers_per_hour": "15576.9304904912",
                "miles_per_hour": "9678.8988372722"
            },
            "miss_distance": {
                "astronomical": "0.9398120148",
                "lunar": "365.5868737572",
                "kilometers": "140593875.614488476",
                "miles": "87360983.3242179288"
            },
            "orbiting_body": "Juptr"
        },
        {
            "close_approach_date": "2008-07-27",
            "close_approach_date_full": "2008-Jul-27 13:36",
            "epoch_date_close_approach": 1217165760000,
            "relative_velocity": {
                "kilometers_per_second": "9.5958014354",
                "kilometers_per_hour": "34544.8851672958",
                "miles_per_hour": "21464.8482307566"
            },
            "miss_distance": {
                "astronomical": "0.007548637",
                "lunar": "2.936419793",
                "kilometers": "1129260.01660319",
                "miles": "701689.636536422"
            },
            "orbiting_body": "Earth"
        },
        {
            "close_approach_date": "2008-07-27",
            "close_approach_date_full": "2008-Jul-27 16:34",
            "epoch_date_close_approach": 1217176440000,
            "relative_velocity": {
                "kilometers_per_second": "10.5584392702",
                "kilometers_per_hour": "38010.3813727146",
                "miles_per_hour": "23618.172803507"
            },
            "miss_distance": {
                "astronomical": "0.0096136922",
                "lunar": "3.7397262658",
                "kilometers": "1438187.875955614",
                "miles": "893648.5070869132"
            },
            "orbiting_body": "Moon"
        }
    ],
    "orbital_data": {
        "orbit_id": "11",
        "orbit_determination_date": "2017-04-06 09:03:12",
        "first_observation_date": "2008-07-28",
        "last_observation_date": "2008-08-03",
        "data_arc_in_days": 6,
        "observations_used": 42,
        "orbit_uncertainty": "7",
        "minimum_orbit_intersection": ".0055097",
        "jupiter_tisserand_invariant": "3.085",
        "epoch_osculation": "2459000.5",
        "eccentricity": ".6184706535229277",
        "semi_major_axis": "2.64930772431105",
        "inclination": "1.111122717179004",
        "ascending_node_longitude": "129.6745718462706",
        "orbital_period": "1575.059757298864",
        "perihelion_distance": "1.010788644673054",
        "perihelion_argument": "153.5706562149709",
        "aphelion_distance": "4.287826803949045",
        "perihelion_time": "2459372.907403972704",
        "mean_anomaly": "274.881537155079",
        "mean_motion": ".228562756639392",
        "equinox": "J2000",
        "orbit_class": {
            "orbit_class_type": "APO",
            "orbit_class_description": "Near-Earth asteroid orbits which cross the Earth’s orbit similar to that of 1862 Apollo",
            "orbit_class_range": "a (semi-major axis) > 1.0 AU; q (perihelion) < 1.017 AU"
        }
    },
    "is_sentry_object": false
}